CCSDS_OMM_VERS = 2.0
CREATION_DATE  = 
ORIGINATOR     = 

OBJECT_NAME    = STARLINK-36396
OBJECT_ID      = 2026-012B
CENTER_NAME    = EARTH
REF_FRAME      = TEME
TIME_SYSTEM    = UTC
MEAN_ELEMENT_THEORY = SGP/SGP4

EPOCH          = 2026-02-05T22:00:03.000096
MEAN_MOTION    = 15.59672295
ECCENTRICITY   = .00012702
INCLINATION    = 42.9997
RA_OF_ASC_NODE = 136.7092
ARG_OF_PERICENTER = 272.0784
MEAN_ANOMALY   = 309.5115

EPHEMERIS_TYPE = 0
CLASSIFICATION_TYPE = U
NORAD_CAT_ID   = 67494
ELEMENT_SET_NO = 999
REV_AT_EPOCH   = 396
BSTAR          = -.33744228E-1
MEAN_MOTION_DOT = -.241958E-1
MEAN_MOTION_DDOT = 0

CCSDS_OMM_VERS = 2.0
CREATION_DATE  = 
ORIGINATOR     = 

OBJECT_NAME    = STARLINK-36550
OBJECT_ID      = 2026-012C
CENTER_NAME    = EARTH
REF_FRAME      = TEME
TIME_SYSTEM    = UTC
MEAN_ELEMENT_THEORY = SGP/SGP4

EPOCH          = 2026-02-05T22:00:03.000096
MEAN_MOTION    = 15.68822377
ECCENTRICITY   = .00015531
INCLINATION    = 42.9992
RA_OF_ASC_NODE = 136.4278
ARG_OF_PERICENTER = 279.3096
MEAN_ANOMALY   = 55.2608

EPHEMERIS_TYPE = 0
CLASSIFICATION_TYPE = U
NORAD_CAT_ID   = 67495
ELEMENT_SET_NO = 999
REV_AT_EPOCH   = 396
BSTAR          = -.20346841E-1
MEAN_MOTION_DOT = -.2100574E-1
MEAN_MOTION_DDOT = 0

CCSDS_OMM_VERS = 2.0
CREATION_DATE  = 
ORIGINATOR     = 

OBJECT_NAME    = STARLINK-36534
OBJECT_ID      = 2026-012D
CENTER_NAME    = EARTH
REF_FRAME      = TEME
TIME_SYSTEM    = UTC
MEAN_ELEMENT_THEORY = SGP/SGP4

EPOCH          = 2026-02-05T22:00:03.000096
MEAN_MOTION    = 15.71970894
ECCENTRICITY   = .00015352
INCLINATION    = 42.9991
RA_OF_ASC_NODE = 136.3268
ARG_OF_PERICENTER = 280.5618
MEAN_ANOMALY   = 94.4037

EPHEMERIS_TYPE = 0
CLASSIFICATION_TYPE = U
NORAD_CAT_ID   = 67496
ELEMENT_SET_NO = 999
REV_AT_EPOCH   = 390
BSTAR          = -.16557863E-1
MEAN_MOTION_DOT = -.1970557E-1
MEAN_MOTION_DDOT = 0

CCSDS_OMM_VERS = 2.0
CREATION_DATE  = 
ORIGINATOR     = 

OBJECT_NAME    = STARLINK-36555
OBJECT_ID      = 2026-012E
CENTER_NAME    = EARTH
REF_FRAME      = TEME
TIME_SYSTEM    = UTC
MEAN_ELEMENT_THEORY = SGP/SGP4

EPOCH          = 2026-02-05T22:00:03.000096
MEAN_MOTION    = 15.71881108
ECCENTRICITY   = .00015926
INCLINATION    = 42.9990
RA_OF_ASC_NODE = 136.3402
ARG_OF_PERICENTER = 282.2801
MEAN_ANOMALY   = 87.3569

EPHEMERIS_TYPE = 0
CLASSIFICATION_TYPE = U
NORAD_CAT_ID   = 67497
ELEMENT_SET_NO = 999
REV_AT_EPOCH   = 396
BSTAR          = -.16597295E-1
MEAN_MOTION_DOT = -.1968041E-1
MEAN_MOTION_DDOT = 0

CCSDS_OMM_VERS = 2.0
CREATION_DATE  = 
ORIGINATOR     = 

OBJECT_NAME    = STARLINK-36081
OBJECT_ID      = 2026-012F
CENTER_NAME    = EARTH
REF_FRAME      = TEME
TIME_SYSTEM    = UTC
MEAN_ELEMENT_THEORY = SGP/SGP4

EPOCH          = 2026-02-05T22:00:03.000096
MEAN_MOTION    = 15.68340628
ECCENTRICITY   = .00015806
INCLINATION    = 42.9993
RA_OF_ASC_NODE = 136.4065
ARG_OF_PERICENTER = 278.0695
MEAN_ANOMALY   = 64.7491

EPHEMERIS_TYPE = 0
CLASSIFICATION_TYPE = U
NORAD_CAT_ID   = 67498
ELEMENT_SET_NO = 999
REV_AT_EPOCH   = 390
BSTAR          = -.20919567E-1
MEAN_MOTION_DOT = -.2114709E-1
MEAN_MOTION_DDOT = 0

CCSDS_OMM_VERS = 2.0
CREATION_DATE  = 
ORIGINATOR     = 

OBJECT_NAME    = STARLINK-36558
OBJECT_ID      = 2026-012G
CENTER_NAME    = EARTH
REF_FRAME      = TEME
TIME_SYSTEM    = UTC
MEAN_ELEMENT_THEORY = SGP/SGP4

EPOCH          = 2026-02-05T22:00:03.000096
MEAN_MOTION    = 15.68316542
ECCENTRICITY   = .00015455
INCLINATION    = 42.9994
RA_OF_ASC_NODE = 136.3996
ARG_OF_PERICENTER = 280.6682
MEAN_ANOMALY   = 64.8431

EPHEMERIS_TYPE = 0
CLASSIFICATION_TYPE = U
NORAD_CAT_ID   = 67499
ELEMENT_SET_NO = 999
REV_AT_EPOCH   = 396
BSTAR          = -.20685903E-1
MEAN_MOTION_DOT = -.2092243E-1
MEAN_MOTION_DDOT = 0

CCSDS_OMM_VERS = 2.0
CREATION_DATE  = 
ORIGINATOR     = 

OBJECT_NAME    = STARLINK-36557
OBJECT_ID      = 2026-012H
CENTER_NAME    = EARTH
REF_FRAME      = TEME
TIME_SYSTEM    = UTC
MEAN_ELEMENT_THEORY = SGP/SGP4

EPOCH          = 2026-02-05T22:00:03.000096
MEAN_MOTION    = 15.75266526
ECCENTRICITY   = .00013617
INCLINATION    = 42.9990
RA_OF_ASC_NODE = 136.2330
ARG_OF_PERICENTER = 284.4948
MEAN_ANOMALY   = 127.7416

EPHEMERIS_TYPE = 0
CLASSIFICATION_TYPE = U
NORAD_CAT_ID   = 67500
ELEMENT_SET_NO = 999
REV_AT_EPOCH   = 396
BSTAR          = -.14473584E-1
MEAN_MOTION_DOT = -.1945712E-1
MEAN_MOTION_DDOT = 0

CCSDS_OMM_VERS = 2.0
CREATION_DATE  = 
ORIGINATOR     = 

OBJECT_NAME    = STARLINK-36433
OBJECT_ID      = 2026-012J
CENTER_NAME    = EARTH
REF_FRAME      = TEME
TIME_SYSTEM    = UTC
MEAN_ELEMENT_THEORY = SGP/SGP4

EPOCH          = 2026-02-05T22:00:03.000096
MEAN_MOTION    = 15.75628383
ECCENTRICITY   = .00016072
INCLINATION    = 42.9983
RA_OF_ASC_NODE = 136.2170
ARG_OF_PERICENTER = 286.5127
MEAN_ANOMALY   = 131.9814

EPHEMERIS_TYPE = 0
CLASSIFICATION_TYPE = U
NORAD_CAT_ID   = 67501
ELEMENT_SET_NO = 999
REV_AT_EPOCH   = 396
BSTAR          = -.14231676E-1
MEAN_MOTION_DOT = -.1944655E-1
MEAN_MOTION_DDOT = 0

CCSDS_OMM_VERS = 2.0
CREATION_DATE  = 
ORIGINATOR     = 

OBJECT_NAME    = STARLINK-36554
OBJECT_ID      = 2026-012K
CENTER_NAME    = EARTH
REF_FRAME      = TEME
TIME_SYSTEM    = UTC
MEAN_ELEMENT_THEORY = SGP/SGP4

EPOCH          = 2026-02-04T04:46:52.995072
MEAN_MOTION    = 15.79080584
ECCENTRICITY   = .0004802
INCLINATION    = 42.9954
RA_OF_ASC_NODE = 146.7031
ARG_OF_PERICENTER = 241.1583
MEAN_ANOMALY   = 118.8805

EPHEMERIS_TYPE = 0
CLASSIFICATION_TYPE = U
NORAD_CAT_ID   = 67502
ELEMENT_SET_NO = 999
REV_AT_EPOCH   = 260
BSTAR          = .16298E-2
MEAN_MOTION_DOT = .310471E-2
MEAN_MOTION_DDOT = 0

CCSDS_OMM_VERS = 2.0
CREATION_DATE  = 
ORIGINATOR     = 

OBJECT_NAME    = STARLINK-36552
OBJECT_ID      = 2026-012L
CENTER_NAME    = EARTH
REF_FRAME      = TEME
TIME_SYSTEM    = UTC
MEAN_ELEMENT_THEORY = SGP/SGP4

EPOCH          = 2026-02-05T22:00:03.000096
MEAN_MOTION    = 15.76656584
ECCENTRICITY   = .00012936
INCLINATION    = 42.9989
RA_OF_ASC_NODE = 136.1819
ARG_OF_PERICENTER = 285.8050
MEAN_ANOMALY   = 146.7087

EPHEMERIS_TYPE = 0
CLASSIFICATION_TYPE = U
NORAD_CAT_ID   = 67503
ELEMENT_SET_NO = 999
REV_AT_EPOCH   = 396
BSTAR          = -.1368544E-1
MEAN_MOTION_DOT = -.1955878E-1
MEAN_MOTION_DDOT = 0

CCSDS_OMM_VERS = 2.0
CREATION_DATE  = 
ORIGINATOR     = 

OBJECT_NAME    = STARLINK-36512
OBJECT_ID      = 2026-012M
CENTER_NAME    = EARTH
REF_FRAME      = TEME
TIME_SYSTEM    = UTC
MEAN_ELEMENT_THEORY = SGP/SGP4

EPOCH          = 2026-02-05T22:00:03.000096
MEAN_MOTION    = 15.74652071
ECCENTRICITY   = .00014882
INCLINATION    = 42.9987
RA_OF_ASC_NODE = 136.1959
ARG_OF_PERICENTER = 285.5790
MEAN_ANOMALY   = 141.1942

EPHEMERIS_TYPE = 0
CLASSIFICATION_TYPE = U
NORAD_CAT_ID   = 67504
ELEMENT_SET_NO = 999
REV_AT_EPOCH   = 396
BSTAR          = -.14926512E-1
MEAN_MOTION_DOT = -.1992919E-1
MEAN_MOTION_DDOT = 0

CCSDS_OMM_VERS = 2.0
CREATION_DATE  = 
ORIGINATOR     = 

OBJECT_NAME    = STARLINK-36545
OBJECT_ID      = 2026-012N
CENTER_NAME    = EARTH
REF_FRAME      = TEME
TIME_SYSTEM    = UTC
MEAN_ELEMENT_THEORY = SGP/SGP4

EPOCH          = 2026-02-05T22:00:03.000096
MEAN_MOTION    = 15.75211397
ECCENTRICITY   = .00014984
INCLINATION    = 42.9990
RA_OF_ASC_NODE = 136.1797
ARG_OF_PERICENTER = 285.3506
MEAN_ANOMALY   = 147.9594

EPHEMERIS_TYPE = 0
CLASSIFICATION_TYPE = U
NORAD_CAT_ID   = 67505
ELEMENT_SET_NO = 999
REV_AT_EPOCH   = 396
BSTAR          = -.14549378E-1
MEAN_MOTION_DOT = -.1950501E-1
MEAN_MOTION_DDOT = 0

CCSDS_OMM_VERS = 2.0
CREATION_DATE  = 
ORIGINATOR     = 

OBJECT_NAME    = STARLINK-36553
OBJECT_ID      = 2026-012P
CENTER_NAME    = EARTH
REF_FRAME      = TEME
TIME_SYSTEM    = UTC
MEAN_ELEMENT_THEORY = SGP/SGP4

EPOCH          = 2026-02-05T22:00:03.000096
MEAN_MOTION    = 15.76560637
ECCENTRICITY   = .00014624
INCLINATION    = 42.9991
RA_OF_ASC_NODE = 136.1510
ARG_OF_PERICENTER = 286.9069
MEAN_ANOMALY   = 157.9168

EPHEMERIS_TYPE = 0
CLASSIFICATION_TYPE = U
NORAD_CAT_ID   = 67506
ELEMENT_SET_NO = 999
REV_AT_EPOCH   = 396
BSTAR          = -.13688111E-1
MEAN_MOTION_DOT = -.194912E-1
MEAN_MOTION_DDOT = 0

CCSDS_OMM_VERS = 2.0
CREATION_DATE  = 
ORIGINATOR     = 

OBJECT_NAME    = STARLINK-36521
OBJECT_ID      = 2026-012Q
CENTER_NAME    = EARTH
REF_FRAME      = TEME
TIME_SYSTEM    = UTC
MEAN_ELEMENT_THEORY = SGP/SGP4

EPOCH          = 2026-02-05T22:00:03.000096
MEAN_MOTION    = 15.76510370
ECCENTRICITY   = .00015042
INCLINATION    = 42.9978
RA_OF_ASC_NODE = 136.1374
ARG_OF_PERICENTER = 290.3822
MEAN_ANOMALY   = 159.6580

EPHEMERIS_TYPE = 0
CLASSIFICATION_TYPE = U
NORAD_CAT_ID   = 67507
ELEMENT_SET_NO = 999
REV_AT_EPOCH   = 396
BSTAR          = -.13698393E-1
MEAN_MOTION_DOT = -.1946634E-1
MEAN_MOTION_DDOT = 0

CCSDS_OMM_VERS = 2.0
CREATION_DATE  = 
ORIGINATOR     = 

OBJECT_NAME    = STARLINK-36526
OBJECT_ID      = 2026-012R
CENTER_NAME    = EARTH
REF_FRAME      = TEME
TIME_SYSTEM    = UTC
MEAN_ELEMENT_THEORY = SGP/SGP4

EPOCH          = 2026-02-05T22:00:03.000096
MEAN_MOTION    = 15.76506800
ECCENTRICITY   = .0001204
INCLINATION    = 42.9989
RA_OF_ASC_NODE = 136.1235
ARG_OF_PERICENTER = 281.8712
MEAN_ANOMALY   = 173.7728

EPHEMERIS_TYPE = 0
CLASSIFICATION_TYPE = U
NORAD_CAT_ID   = 67508
ELEMENT_SET_NO = 999
REV_AT_EPOCH   = 396
BSTAR          = -.13829728E-1
MEAN_MOTION_DOT = -.1962127E-1
MEAN_MOTION_DDOT = 0

